[{"OBJECT_NAME":"SITRO-AIS 13","OBJECT_ID":"2024-199J","EPOCH":"2026-03-09T21:50:28.432320","MEAN_MOTION":14.9731664,"ECCENTRICITY":0.00074694,"INCLINATION":97.3312,"RA_OF_ASC_NODE":274.5755,"ARG_OF_PERICENTER":53.5174,"MEAN_ANOMALY":306.6736,"EPHEMERIS_TYPE":0,"CLASSIFICATION_TYPE":"U","NORAD_CAT_ID":61743,"ELEMENT_SET_NO":999,"REV_AT_EPOCH":11713,"BSTAR":0.00039590089,"MEAN_MOTION_DOT":4.542e-5,"MEAN_MOTION_DDOT":0},{"OBJECT_NAME":"STARLINK-34685","OBJECT_ID":"2025-150Z","EPOCH":"2026-03-09T13:41:24.326880","MEAN_MOTION":14.98346858,"ECCENTRICITY":0.0003693,"INCLINATION":70.0014,"RA_OF_ASC_NODE":134.9641,"ARG_OF_PERICENTER":271.3879,"MEAN_ANOMALY":88.6857,"EPHEMERIS_TYPE":0,"CLASSIFICATION_TYPE":"U","NORAD_CAT_ID":64813,"ELEMENT_SET_NO":999,"REV_AT_EPOCH":3649,"BSTAR":0.00026014,"MEAN_MOTION_DOT":3.014e-5,"MEAN_MOTION_DDOT":0}]
